OBJECT_NAME,OBJECT_ID,EPOCH,MEAN_MOTION,ECCENTRICITY,INCLINATION,RA_OF_ASC_NODE,ARG_OF_PERICENTER,MEAN_ANOMALY,EPHEMERIS_TYPE,CLASSIFICATION_TYPE,NORAD_CAT_ID,ELEMENT_SET_NO,REV_AT_EPOCH,BSTAR,MEAN_MOTION_DOT,MEAN_MOTION_DDOT
SAUDISAT 1C (SO-50),2002-058C,2026-07-10T01:57:58.749408,14.83092603,.00746788,64.5517,58.1476,258.2262,101.0460,0,U,27607,999,26785,.75179496E-4,.486E-5,0
SAUDISAT 2,2004-025F,2026-07-09T11:45:59.678784,14.56696323,.00237709,98.5516,191.0492,226.2459,133.6771,0,U,28371,999,16899,.45778518E-4,.155E-5,0
SAUDISAT 3,2007-012B,2026-07-10T10:44:10.821408,14.71438786,.00152862,98.1465,141.8647,148.9878,211.2234,0,U,31118,999,3116,.31532444E-4,.145E-5,0
SALSAT,2020-068K,2026-07-10T10:17:36.763872,15.30129687,.00086995,97.8857,195.9138,210.5134,149.5600,0,U,46495,999,31891,.18731159E-3,.5381E-4,0
